ONEWEB-0716             
1 55177U 23004AP  24134.82376773  .00000071  00000+0  15015-3 0  9993
2 55177  87.9175 158.0173 0002007  98.0357 262.1002 13.17649331 66924
ONEWEB-0717             
1 55178U 23004AQ  24134.50261104  .00000058  00000+0  11705-3 0  9997
2 55178  87.9172 158.0459 0002246  66.4614 293.6753 13.17649144 66934
ONEWEB-0719             
1 55179U 23004AR  24134.81744139  .00000001  00000+0 -31283-4 0  9999
2 55179  87.9172 157.9699 0001748  94.4196 265.7135 13.17648903 66926
ONEWEB-0530             
1 55796U 23029A   24134.55292954  .00000076  00000+0  15465-3 0  9999
2 55796  87.9214  66.6131 0001827  63.6529 296.4792 13.20773190 60218
ONEWEB-0534             
1 55797U 23029B   24134.76756599  .00000120  00000+0  26354-3 0  9992
2 55797  87.9213  66.5773 0001879  85.3708 274.7639 13.20772208 60247
ONEWEB-0556             
1 55798U 23029C   24134.31934404  .00000173  00000+0  39329-3 0  9991
2 55798  87.9214  66.6601 0001089  79.5740 280.5516 13.20771749 60185
ONEWEB-0562             
1 55799U 23029D   24134.76125853  .00000107  00000+0  23146-3 0  9998
2 55799  87.9215  66.5625 0001323  46.9511 313.1732 13.20771527 60241
ONEWEB-0563             
1 55800U 23029E   24134.75494958  .00000170  00000+0  38621-3 0  9999
2 55800  87.9215  66.5788 0001668  82.5852 277.5471 13.20772263 60230
